STARLINK-4308           
1 53061C 22077U   22363.11715278 -.00006942  00000-0 -54176-3 0  3635
2 53061  97.6549 181.6138 0000414  22.3243 268.2863 15.01253309    15
STARLINK-4311           
1 53062C 22077V   22363.11854167  .00000244  00000-0  19048-4 0  3634
2 53062  97.6562 181.6178 0000904  94.6174 183.5194 15.01247965    11
STARLINK-4307           
1 53063C 22077W   22363.10881944 -.00000399  00000-0 -31781-4 0  3638
2 53063  97.6513 181.6415 0003452 155.0552 339.7463 15.00444490    10
STARLINK-4313           
1 53064C 22077X   22363.11298611 -.00023381  00000-0 -18244-2 0  3636
2 53064  97.6545 181.6087 0001045  63.4951 194.6229 15.01273412    15
STARLINK-4312           
1 53065C 22077Y   22363.12131944  .00001281  00000-0  99971-4 0  3634
2 53065  97.6579 181.6212 0002011  24.9879 308.1583 15.01252357    18
STARLINK-4309           
1 53066C 22077Z   22363.11506944 -.00024463  00000-0 -19088-2 0  3638
2 53066  97.6564 181.6121 0002009  39.5537 249.8055 15.01274054    15
STARLINK-4306           
1 53067C 22077AA  22363.11715278 -.00022632  00000-0 -17660-2 0  3631
2 53067  97.6578 181.6255 0002109  31.0830 299.5335 15.01270659    13
STARLINK-4325           
1 53068C 22077AB  22363.08104167 -.00000241  00000-0 -18783-4 0  3638
2 53068  97.6599 181.5861 0002271  14.8233 109.4522 15.01248886    19
STARLINK-4323           
1 53069C 22077AC  22363.11784722  .00000877  00000-0  68425-4 0  3635
2 53069  97.6572 181.6375 0002733  22.9367 331.4234 15.01258340    16
STARLINK-4342           
1 53070C 22077AD  22363.11576389  .00000899  00000-0  70150-4 0  3637
2 53070  97.6597 181.6208 0002104  25.6246 287.5232 15.01245838    15
STARLINK-4328           
1 53071C 22077AE  22363.11437500  .00000488  00000-0  38063-4 0  3630
2 53071  97.6560 181.6364 0003437  21.6219 324.0035 15.01253198    11
STARLINK-4344           
1 53072C 22077AF  22363.11576389  .00001015  00000-0  79150-4 0  3639
2 53072  97.6572 181.6312 0002782  26.6313 306.5119 15.01255506    13
STARLINK-4346           
1 53073C 22077AG  22363.12131944 -.00004197  00000-0 -32754-3 0  3639
2 53073  97.6545 181.6483 0003593  19.4933  23.6635 15.01246551    12
STARLINK-4310           
1 53074C 22077AH  22363.08312500  .00001424  00000-0  11106-3 0  3630
2 53074  97.6561 181.6056 0003171  20.4068 155.1135 15.01253549    11
STARLINK-4348           
1 53075C 22077AJ  22363.11784722 -.00021175  00000-0 -16523-2 0  3638
2 53075  97.6545 181.6479 0003286  16.3935  26.6561 15.01266310    12
STARLINK-4347           
1 53076C 22077AK  22363.12062500 -.00024234  00000-0 -18909-2 0  3632
2 53076  97.6554 181.6443 0003533  17.1906  12.1681 15.01270518    14
STARLINK-4315           
1 53077C 22077AL  22363.11437500 -.00002395  00000-0 -18689-3 0  3638
2 53077  97.6537 181.6478 0003766  16.0241  19.6061 15.01243496    11
STARLINK-4322           
1 53078C 22077AM  22363.12062500 -.00000432  00000-0 -33739-4 0  3638
2 53078  97.6553 181.6460 0002838  13.8556  35.5353 15.01250890    11
STARLINK-4327           
1 53079C 22077AN  22363.12131944 -.00021319  00000-0 -16636-2 0  3630
2 53079  97.6544 181.6548 0003461  15.9658  67.1655 15.01265649    12
STARLINK-4330           
1 53080C 22077AP  22363.12062500 -.00000741  00000-0 -57784-4 0  3630
2 53080  97.6546 181.6517 0003959  15.2500  44.1233 15.01261053    15
STARLINK-4326           
1 53081C 22077AQ  22363.11229167 -.00000961  00000-0 -74945-4 0  3636
2 53081  97.6529 181.6397 0003159  21.0892  31.9343 15.01253283    16
STARLINK-4321           
1 53082C 22077AR  22363.11923611 -.00007170  00000-0 -55956-3 0  3631
2 53082  97.6535 181.6489 0004001  16.0172  65.8509 15.01247250    15
STARLINK-4251           
1 53083C 22077AS  22363.11854167 -.00001336  00000-0 -10425-3 0  3631
2 53083  97.6523 181.6303 0001872   6.8308 141.3253 15.01247460    18
STARLINK-4319           
1 53084C 22077AT  22363.11993056 -.00003234  00000-0 -25234-3 0  3636
2 53084  97.6534 181.6485 0003050  18.1628  77.4828 15.01245871    14
STARLINK-4324           
1 53085C 22077AU  22363.11784722 -.00000703  00000-0 -54837-4 0  3635
2 53085  97.6528 181.6472 0003214  15.7441  88.6202 15.01254954    14
STARLINK-4318           
1 53086C 22077AV  22363.11576389 -.00007044  00000-0 -54964-3 0  3639
2 53086  97.6522 181.6402 0003048  19.5976  63.5209 15.01251255    12
STARLINK-4329           
1 53087C 22077AW  22363.11854167 -.00000548  00000-0 -42712-4 0  3634
2 53087  97.6514 181.6328 0002076  18.5884 108.1962 15.01259972    14
STARLINK-4333           
1 53088C 22077AX  22363.12062500 -.00001001  00000-0 -78065-4 0  3633
2 53088  97.6521 181.6480 0002521  13.5077 115.8488 15.01256793    12
STARLINK-4063           
1 53132C 22083A   22363.11993056  .00011289  00000-0  70814-3 0  3638
2 53132  53.2167  11.0709 0002924  22.1113  13.5459 15.08811885    18
STARLINK-4154           
1 53133C 22083B   22363.11923611  .00003599  00000-0  22587-3 0  3638
2 53133  53.2158  11.0619 0002594  25.3660 266.5520 15.08798955    15
STARLINK-4150           
1 53134C 22083C   22363.11854167 -.00005420  00000-0 -34013-3 0  3632
2 53134  53.2185  11.0583 0002893  18.9411 329.1771 15.08813206    11
STARLINK-4023           
1 53135C 22083D   22363.11437500  .00006547  00000-0  41082-3 0  3634
2 53135  53.2182  11.0937 0003144  20.9679 264.4948 15.08805887    14
STARLINK-4152           
1 53136C 22083E   22363.12062500  .00010702  00000-0  67132-3 0  3632
2 53136  53.2178  11.0631 0002808  18.0572 321.3751 15.08811893    16
STARLINK-4145           
1 53137C 22083F   22363.11993056  .00010343  00000-0  64897-3 0  3637
2 53137  53.2175  11.0744 0002930  24.1159 351.5652 15.08802541    19
STARLINK-4141           
1 53138C 22083G   22363.11993056  .00006028  00000-0  37826-3 0  3635
2 53138  53.2186   6.0556 0002288  30.6996  87.2743 15.08803411    15
STARLINK-4185           
1 53139C 22083H   22363.12131944  .00011970  00000-0  75088-3 0  3631
2 53139  53.2163  11.0563 0001918  37.2453  45.9595 15.08811637    10
STARLINK-4170           
1 53140C 22083J   22363.11506944  .00005977  00000-0  37505-3 0  3630
2 53140  53.2158  11.0836 0002338  36.0626 353.1956 15.08804319    19
STARLINK-4103           
1 53141C 22083K   22363.11506944  .00011210  00000-0  70328-3 0  3638
2 53141  53.2176  11.0712 0002920  21.8282 107.4139 15.08805743    15
STARLINK-4101           
1 53142C 22083L   22363.11854167  .00003135  00000-0  19675-3 0  3637
2 53142  53.2181  11.0765 0002897  22.4487  65.6820 15.08807383    11
STARLINK-4102           
1 53143C 22083M   22363.11993056  .00011610  00000-0  72848-3 0  3637
2 53143  53.2163  11.0605 0001539  51.8750 123.7925 15.08804770    15
STARLINK-4100           
1 53144C 22083N   22363.11645833 -.00006925  00000-0 -43461-3 0  3639
2 53144  53.2154  11.0832 0002948  19.7073  77.0908 15.08811291    12
STARLINK-4106           
1 53145C 22083P   22363.11645833  .00010916  00000-0  68485-3 0  3636
2 53145  53.2178  11.0668 0002572  22.2533 174.5269 15.08808717    11
STARLINK-4099           
1 53146C 22083Q   22363.12131944 -.00004426  00000-0 -27777-3 0  3631
2 53146  53.2166  11.0564 0002661  21.9759 121.2388 15.08810101    10
STARLINK-4094           
1 53147C 22083R   22363.11715278  .00005623  00000-0  35287-3 0  3632
2 53147  53.2176  11.0613 0002775  23.5034 197.0557 15.08805360    17
STARLINK-4066           
1 53148C 22083S   22363.10465278 -.00007266  00000-0 -45603-3 0  3634
2 53148  53.2178  11.1247 0002157  27.4377  85.1931 15.08813041    19
STARLINK-4021           
1 53149C 22083T   22363.12131944  .00011310  00000-0  70954-3 0  3637
2 53149  53.2186   1.0430 0002689  23.9177 174.2886 15.08807436    10
STARLINK-4038           
1 53150C 22083U   22363.11993056  .00002852  00000-0  17895-3 0  3634
2 53150  53.2159   1.0460 0002754  24.1821 306.4945 15.08807273    11
STARLINK-4040           
1 53151C 22083V   22363.11506944 -.00004037  00000-0 -25334-3 0  3637
2 53151  53.2174   1.0718 0002692  21.9438 342.3069 15.08813715    19
STARLINK-4045           
1 53152C 22083W   22363.11854167  .00008936  00000-0  56073-3 0  3635
2 53152  53.2167   1.0537 0002652  29.5075 313.6162 15.08802687    19
STARLINK-4098           
1 53153C 22083X   22363.11506944  .00009936  00000-0  62336-3 0  3633
2 53153  53.2176   1.0725 0002469  30.5212 353.7228 15.08808965    13
STARLINK-4077           
1 53154C 22083Y   22363.11854167  .00010667  00000-0  66922-3 0  3635
2 53154  53.2179   1.0591 0002533  26.3264 336.7900 15.08809144    18
STARLINK-4088           
1 53155C 22083Z   22363.11506944 -.00002878  00000-0 -18063-3 0  3633
2 53155  53.2186   1.0731 0002205  30.3549  33.9023 15.08808617    16
STARLINK-4087           
1 53156C 22083AA  22363.12131944  .00006006  00000-0  37695-3 0  3636
2 53156  53.2185   1.0455 0002287  33.1077  59.9170 15.08799186    17
STARLINK-4093           
1 53157C 22083AB  22363.11576389 -.00003260  00000-0 -20455-3 0  3639
2 53157  53.2199   1.0700 0002027  33.2463  74.7511 15.08817577    17
STARLINK-4054           
1 53158C 22083AC  22363.11923611  .00007096  00000-0  44538-3 0  3631
2 53158  53.2179   1.0541 0001556  58.2618   8.6384 15.08800046    11
STARLINK-4111           
1 53159C 22083AD  22363.12131944 -.00000702  00000-0 -44031-4 0  3631
2 53159  53.2187   1.0402 0002947  17.3429 160.8607 15.08808624    17
STARLINK-4096           
1 53160C 22083AE  22363.11437500  .00009836  00000-0  61709-3 0  3634
2 53160  53.2180   1.0737 0001785  37.4033  43.0714 15.08809503    14
STARLINK-4055           
1 53161C 22083AF  22363.11993056  .00002463  00000-0  15445-3 0  3633
2 53161  53.2187   1.0651 0002510  28.1166 202.5244 15.08834324    17
STARLINK-4114           
1 53162C 22083AG  22363.11923611 -.00006432  00000-0 -40368-3 0  3638
2 53162  53.2196   1.0535 0002188  30.4736 116.4065 15.08814953    19
